{
    "links": {
        "self": "http://www.neowsapp.com/rest/v1/neo/3755206?api_key=iIulBulltgU6a56xZRHN4H3l9WmuAYTsLGpBGhQ2"
    },
    "id": "3755206",
    "neo_reference_id": "3755206",
    "name": "(2016 NY22)",
    "designation": "2016 NY22",
    "nasa_jpl_url": "http://ssd.jpl.nasa.gov/sbdb.cgi?sstr=3755206",
    "absolute_magnitude_h": 24.2,
    "estimated_diameter": {
        "kilometers": {
            "estimated_diameter_min": 0.0384197891,
            "estimated_diameter_max": 0.0859092601
        },
        "meters": {
            "estimated_diameter_min": 38.4197891064,
            "estimated_diameter_max": 85.9092601232
        },
        "miles": {
            "estimated_diameter_min": 0.0238729428,
            "estimated_diameter_max": 0.0533815229
        },
        "feet": {
            "estimated_diameter_min": 126.0491808919,
            "estimated_diameter_max": 281.8545369825
        }
    },
    "is_potentially_hazardous_asteroid": false,
    "close_approach_data": [
        {
            "close_approach_date": "2016-06-16",
            "close_approach_date_full": "2016-Jun-16 12:27",
            "epoch_date_close_approach": 1466080020000,
            "relative_velocity": {
                "kilometers_per_second": "6.2332660845",
                "kilometers_per_hour": "22439.7579040603",
                "miles_per_hour": "13943.1929043312"
            },
            "miss_distance": {
                "astronomical": "0.1872266246",
                "lunar": "72.8311569694",
                "kilometers": "28008704.247449602",
                "miles": "17403801.7943524276"
            },
            "orbiting_body": "Earth"
        }
    ],
    "orbital_data": {
        "orbit_id": "6",
        "orbit_determination_date": "2017-04-06 08:25:02",
        "first_observation_date": "2016-07-08",
        "last_observation_date": "2016-08-02",
        "data_arc_in_days": 25,
        "observations_used": 22,
        "orbit_uncertainty": "7",
        "minimum_orbit_intersection": ".167105",
        "jupiter_tisserand_invariant": "3.162",
        "epoch_osculation": "2459000.5",
        "eccentricity": ".5531718546697335",
        "semi_major_axis": "2.624556923232355",
        "inclination": "4.818877861449224",
        "ascending_node_longitude": "231.9644812340944",
        "orbital_period": "1553.039213531851",
        "perihelion_distance": "1.172725902321624",
        "perihelion_argument": "41.27138847262106",
        "aphelion_distance": "4.076387944143086",
        "perihelion_time": "2459113.905864772276",
        "mean_anomaly": "333.712118173002",
        "mean_motion": ".2318035480773885",
        "equinox": "J2000",
        "orbit_class": {
            "orbit_class_type": "AMO",
            "orbit_class_description": "Near-Earth asteroid orbits similar to that of 1221 Amor",
            "orbit_class_range": "1.017 AU < q (perihelion) < 1.3 AU"
        }
    },
    "is_sentry_object": false
}